{"type": "FeatureCollection", "features": [{"type": "Feature", "properties": {"satellite": "Astra 19.2E", "lon": 19.2, "band": "Ku", "min_elevation": 10.0}, "geometry": {"type": "Polygon", "coordinates": [[[19.2, 71.433], [25.132, 71.329], [30.932, 71.022], [36.485, 70.52], [41.706, 69.839], [46.537, 68.995], [50.956, 68.008], [54.962, 66.896], [58.572, 65.676], [61.813, 64.363], [64.717, 62.972], [67.318, 61.513], [69.649, 59.997], [71.739, 58.431], [73.617, 56.824], [75.307, 55.18], [76.83, 53.505], [78.207, 51.803], [79.453, 50.077], [80.583, 48.331], [81.61, 46.566], [82.543, 44.786], [83.394, 42.992], [84.169, 41.186], [84.877, 39.368], [85.523, 37.541], [86.113, 35.705], [86.652, 33.862], [87.144, 32.011], [87.592, 30.155], [88.0, 28.293], [88.372, 26.426], [88.708, 24.554], [89.012, 22.679], [89.285, 20.8], [89.53, 18.918], [89.747, 17.034], [89.939, 15.147], [90.105, 13.258], [90.247, 11.367], [90.366, 9.475], [90.463, 7.581], [90.537, 5.687], [90.59, 3.791], [90.622, 1.896], [90.633, 0.0], [90.622, -1.896], [90.59, -3.791], [90.537, -5.687], [90.463, -7.581], [90.366, -9.475], [90.247, -11.367], [90.105, -13.258], [89.939, -15.147], [89.747, -17.034], [89.53, -18.918], [89.285, -20.8], [89.012, -22.679], [88.708, -24.554], [88.372, -26.426], [88.0, -28.293], [87.592, -30.155], [87.144, -32.011], [86.652, -33.862], [86.113, -35.705], [85.523, -37.541], [84.877, -39.368], [84.169, -41.186], [83.394, -42.992], [82.543, -44.786], [81.61, -46.566], [80.583, -48.331], [79.453, -50.077], [78.207, -51.803], [76.83, -53.505], [75.307, -55.18], [73.617, -56.824], [71.739, -58.431], [69.649, -59.997], [67.318, -61.513], [64.717, -62.972], [61.813, -64.363], [58.572, -65.676], [54.962, -66.896], [50.956, -68.008], [46.537, -68.995], [41.706, -69.839], [36.485, -70.52], [30.932, -71.022], [25.132, -71.329], [19.2, -71.433], [13.268, -71.329], [7.468, -71.022], [1.915, -70.52], [-3.306, -69.839], [-8.137, -68.995], [-12.556, -68.008], [-16.562, -66.896], [-20.172, -65.676], [-23.413, -64.363], [-26.317, -62.972], [-28.918, -61.513], [-31.249, -59.997], [-33.339, -58.431], [-35.217, -56.824], [-36.907, -55.18], [-38.43, -53.505], [-39.807, -51.803], [-41.053, -50.077], [-42.183, -48.331], [-43.21, -46.566], [-44.143, -44.786], [-44.994, -42.992], [-45.769, -41.186], [-46.477, -39.368], [-47.123, -37.541], [-47.713, -35.705], [-48.252, -33.862], [-48.744, -32.011], [-49.192, -30.155], [-49.6, -28.293], [-49.972, -26.426], [-50.308, -24.554], [-50.612, -22.679], [-50.885, -20.8], [-51.13, -18.918], [-51.347, -17.034], [-51.539, -15.147], [-51.705, -13.258], [-51.847, -11.367], [-51.966, -9.475], [-52.063, -7.581], [-52.137, -5.687], [-52.19, -3.791], [-52.222, -1.896], [-52.233, -0.0], [-52.222, 1.896], [-52.19, 3.791], [-52.137, 5.687], [-52.063, 7.581], [-51.966, 9.475], [-51.847, 11.367], [-51.705, 13.258], [-51.539, 15.147], [-51.347, 17.034], [-51.13, 18.918], [-50.885, 20.8], [-50.612, 22.679], [-50.308, 24.554], [-49.972, 26.426], [-49.6, 28.293], [-49.192, 30.155], [-48.744, 32.011], [-48.252, 33.862], [-47.713, 35.705], [-47.123, 37.541], [-46.477, 39.368], [-45.769, 41.186], [-44.994, 42.992], [-44.143, 44.786], [-43.21, 46.566], [-42.183, 48.331], [-41.053, 50.077], [-39.807, 51.803], [-38.43, 53.505], [-36.907, 55.18], [-35.217, 56.824], [-33.339, 58.431], [-31.249, 59.997], [-28.918, 61.513], [-26.317, 62.972], [-23.413, 64.363], [-20.172, 65.676], [-16.562, 66.896], [-12.556, 68.008], [-8.137, 68.995], [-3.306, 69.839], [1.915, 70.52], [7.468, 71.022], [13.268, 71.329], [19.2, 71.433]]]}}, {"type": "Feature", "properties": {"satellite": "Hot Bird 13D", "lon": 13.0, "band": "Ku", "min_elevation": 10.0}, "geometry": {"type": "Polygon", "coordinates": [[[13.0, 71.433], [18.932, 71.329], [24.732, 71.022], [30.285, 70.52], [35.506, 69.839], [40.337, 68.995], [44.756, 68.008], [48.762, 66.896], [52.372, 65.676], [55.613, 64.363], [58.517, 62.972], [61.118, 61.513], [63.449, 59.997], [65.539, 58.431], [67.417, 56.824], [69.107, 55.18], [70.63, 53.505], [72.007, 51.803], [73.253, 50.077], [74.383, 48.331], [75.41, 46.566], [76.343, 44.786], [77.194, 42.992], [77.969, 41.186], [78.677, 39.368], [79.323, 37.541], [79.913, 35.705], [80.452, 33.862], [80.944, 32.011], [81.392, 30.155], [81.8, 28.293], [82.172, 26.426], [82.508, 24.554], [82.812, 22.679], [83.085, 20.8], [83.33, 18.918], [83.547, 17.034], [83.739, 15.147], [83.905, 13.258], [84.047, 11.367], [84.166, 9.475], [84.263, 7.581], [84.337, 5.687], [84.39, 3.791], [84.422, 1.896], [84.433, 0.0], [84.422, -1.896], [84.39, -3.791], [84.337, -5.687], [84.263, -7.581], [84.166, -9.475], [84.047, -11.367], [83.905, -13.258], [83.739, -15.147], [83.547, -17.034], [83.33, -18.918], [83.085, -20.8], [82.812, -22.679], [82.508, -24.554], [82.172, -26.426], [81.8, -28.293], [81.392, -30.155], [80.944, -32.011], [80.452, -33.862], [79.913, -35.705], [79.323, -37.541], [78.677, -39.368], [77.969, -41.186], [77.194, -42.992], [76.343, -44.786], [75.41, -46.566], [74.383, -48.331], [73.253, -50.077], [72.007, -51.803], [70.63, -53.505], [69.107, -55.18], [67.417, -56.824], [65.539, -58.431], [63.449, -59.997], [61.118, -61.513], [58.517, -62.972], [55.613, -64.363], [52.372, -65.676], [48.762, -66.896], [44.756, -68.008], [40.337, -68.995], [35.506, -69.839], [30.285, -70.52], [24.732, -71.022], [18.932, -71.329], [13.0, -71.433], [7.068, -71.329], [1.268, -71.022], [-4.285, -70.52], [-9.506, -69.839], [-14.337, -68.995], [-18.756, -68.008], [-22.762, -66.896], [-26.372, -65.676], [-29.613, -64.363], [-32.517, -62.972], [-35.118, -61.513], [-37.449, -59.997], [-39.539, -58.431], [-41.417, -56.824], [-43.107, -55.18], [-44.63, -53.505], [-46.007, -51.803], [-47.253, -50.077], [-48.383, -48.331], [-49.41, -46.566], [-50.343, -44.786], [-51.194, -42.992], [-51.969, -41.186], [-52.677, -39.368], [-53.323, -37.541], [-53.913, -35.705], [-54.452, -33.862], [-54.944, -32.011], [-55.392, -30.155], [-55.8, -28.293], [-56.172, -26.426], [-56.508, -24.554], [-56.812, -22.679], [-57.085, -20.8], [-57.33, -18.918], [-57.547, -17.034], [-57.739, -15.147], [-57.905, -13.258], [-58.047, -11.367], [-58.166, -9.475], [-58.263, -7.581], [-58.337, -5.687], [-58.39, -3.791], [-58.422, -1.896], [-58.433, -0.0], [-58.422, 1.896], [-58.39, 3.791], [-58.337, 5.687], [-58.263, 7.581], [-58.166, 9.475], [-58.047, 11.367], [-57.905, 13.258], [-57.739, 15.147], [-57.547, 17.034], [-57.33, 18.918], [-57.085, 20.8], [-56.812, 22.679], [-56.508, 24.554], [-56.172, 26.426], [-55.8, 28.293], [-55.392, 30.155], [-54.944, 32.011], [-54.452, 33.862], [-53.913, 35.705], [-53.323, 37.541], [-52.677, 39.368], [-51.969, 41.186], [-51.194, 42.992], [-50.343, 44.786], [-49.41, 46.566], [-48.383, 48.331], [-47.253, 50.077], [-46.007, 51.803], [-44.63, 53.505], [-43.107, 55.18], [-41.417, 56.824], [-39.539, 58.431], [-37.449, 59.997], [-35.118, 61.513], [-32.517, 62.972], [-29.613, 64.363], [-26.372, 65.676], [-22.762, 66.896], [-18.756, 68.008], [-14.337, 68.995], [-9.506, 69.839], [-4.285, 70.52], [1.268, 71.022], [7.068, 71.329], [13.0, 71.433]]]}}, {"type": "Feature", "properties": {"satellite": "Eutelsat 7 West A", "lon": -7.0, "band": "Ku", "min_elevation": 10.0}, "geometry": {"type": "Polygon", "coordinates": [[[-7.0, 71.433], [-1.068, 71.329], [4.732, 71.022], [10.285, 70.52], [15.506, 69.839], [20.337, 68.995], [24.756, 68.008], [28.762, 66.896], [32.372, 65.676], [35.613, 64.363], [38.517, 62.972], [41.118, 61.513], [43.449, 59.997], [45.539, 58.431], [47.417, 56.824], [49.107, 55.18], [50.63, 53.505], [52.007, 51.803], [53.253, 50.077], [54.383, 48.331], [55.41, 46.566], [56.343, 44.786], [57.194, 42.992], [57.969, 41.186], [58.677, 39.368], [59.323, 37.541], [59.913, 35.705], [60.452, 33.862], [60.944, 32.011], [61.392, 30.155], [61.8, 28.293], [62.172, 26.426], [62.508, 24.554], [62.812, 22.679], [63.085, 20.8], [63.33, 18.918], [63.547, 17.034], [63.739, 15.147], [63.905, 13.258], [64.047, 11.367], [64.166, 9.475], [64.263, 7.581], [64.337, 5.687], [64.39, 3.791], [64.422, 1.896], [64.433, 0.0], [64.422, -1.896], [64.39, -3.791], [64.337, -5.687], [64.263, -7.581], [64.166, -9.475], [64.047, -11.367], [63.905, -13.258], [63.739, -15.147], [63.547, -17.034], [63.33, -18.918], [63.085, -20.8], [62.812, -22.679], [62.508, -24.554], [62.172, -26.426], [61.8, -28.293], [61.392, -30.155], [60.944, -32.011], [60.452, -33.862], [59.913, -35.705], [59.323, -37.541], [58.677, -39.368], [57.969, -41.186], [57.194, -42.992], [56.343, -44.786], [55.41, -46.566], [54.383, -48.331], [53.253, -50.077], [52.007, -51.803], [50.63, -53.505], [49.107, -55.18], [47.417, -56.824], [45.539, -58.431], [43.449, -59.997], [41.118, -61.513], [38.517, -62.972], [35.613, -64.363], [32.372, -65.676], [28.762, -66.896], [24.756, -68.008], [20.337, -68.995], [15.506, -69.839], [10.285, -70.52], [4.732, -71.022], [-1.068, -71.329], [-7.0, -71.433], [-12.932, -71.329], [-18.732, -71.022], [-24.285, -70.52], [-29.506, -69.839], [-34.337, -68.995], [-38.756, -68.008], [-42.762, -66.896], [-46.372, -65.676], [-49.613, -64.363], [-52.517, -62.972], [-55.118, -61.513], [-57.449, -59.997], [-59.539, -58.431], [-61.417, -56.824], [-63.107, -55.18], [-64.63, -53.505], [-66.007, -51.803], [-67.253, -50.077], [-68.383, -48.331], [-69.41, -46.566], [-70.343, -44.786], [-71.194, -42.992], [-71.969, -41.186], [-72.677, -39.368], [-73.323, -37.541], [-73.913, -35.705], [-74.452, -33.862], [-74.944, -32.011], [-75.392, -30.155], [-75.8, -28.293], [-76.172, -26.426], [-76.508, -24.554], [-76.812, -22.679], [-77.085, -20.8], [-77.33, -18.918], [-77.547, -17.034], [-77.739, -15.147], [-77.905, -13.258], [-78.047, -11.367], [-78.166, -9.475], [-78.263, -7.581], [-78.337, -5.687], [-78.39, -3.791], [-78.422, -1.896], [-78.433, -0.0], [-78.422, 1.896], [-78.39, 3.791], [-78.337, 5.687], [-78.263, 7.581], [-78.166, 9.475], [-78.047, 11.367], [-77.905, 13.258], [-77.739, 15.147], [-77.547, 17.034], [-77.33, 18.918], [-77.085, 20.8], [-76.812, 22.679], [-76.508, 24.554], [-76.172, 26.426], [-75.8, 28.293], [-75.392, 30.155], [-74.944, 32.011], [-74.452, 33.862], [-73.913, 35.705], [-73.323, 37.541], [-72.677, 39.368], [-71.969, 41.186], [-71.194, 42.992], [-70.343, 44.786], [-69.41, 46.566], [-68.383, 48.331], [-67.253, 50.077], [-66.007, 51.803], [-64.63, 53.505], [-63.107, 55.18], [-61.417, 56.824], [-59.539, 58.431], [-57.449, 59.997], [-55.118, 61.513], [-52.517, 62.972], [-49.613, 64.363], [-46.372, 65.676], [-42.762, 66.896], [-38.756, 68.008], [-34.337, 68.995], [-29.506, 69.839], [-24.285, 70.52], [-18.732, 71.022], [-12.932, 71.329], [-7.0, 71.433]]]}}, {"type": "Feature", "properties": {"satellite": "Eutelsat 8 West B", "lon": -8.0, "band": "Ku", "min_elevation": 10.0}, "geometry": {"type": "Polygon", "coordinates": [[[-8.0, 71.433], [-2.068, 71.329], [3.732, 71.022], [9.285, 70.52], [14.506, 69.839], [19.337, 68.995], [23.756, 68.008], [27.762, 66.896], [31.372, 65.676], [34.613, 64.363], [37.517, 62.972], [40.118, 61.513], [42.449, 59.997], [44.539, 58.431], [46.417, 56.824], [48.107, 55.18], [49.63, 53.505], [51.007, 51.803], [52.253, 50.077], [53.383, 48.331], [54.41, 46.566], [55.343, 44.786], [56.194, 42.992], [56.969, 41.186], [57.677, 39.368], [58.323, 37.541], [58.913, 35.705], [59.452, 33.862], [59.944, 32.011], [60.392, 30.155], [60.8, 28.293], [61.172, 26.426], [61.508, 24.554], [61.812, 22.679], [62.085, 20.8], [62.33, 18.918], [62.547, 17.034], [62.739, 15.147], [62.905, 13.258], [63.047, 11.367], [63.166, 9.475], [63.263, 7.581], [63.337, 5.687], [63.39, 3.791], [63.422, 1.896], [63.433, 0.0], [63.422, -1.896], [63.39, -3.791], [63.337, -5.687], [63.263, -7.581], [63.166, -9.475], [63.047, -11.367], [62.905, -13.258], [62.739, -15.147], [62.547, -17.034], [62.33, -18.918], [62.085, -20.8], [61.812, -22.679], [61.508, -24.554], [61.172, -26.426], [60.8, -28.293], [60.392, -30.155], [59.944, -32.011], [59.452, -33.862], [58.913, -35.705], [58.323, -37.541], [57.677, -39.368], [56.969, -41.186], [56.194, -42.992], [55.343, -44.786], [54.41, -46.566], [53.383, -48.331], [52.253, -50.077], [51.007, -51.803], [49.63, -53.505], [48.107, -55.18], [46.417, -56.824], [44.539, -58.431], [42.449, -59.997], [40.118, -61.513], [37.517, -62.972], [34.613, -64.363], [31.372, -65.676], [27.762, -66.896], [23.756, -68.008], [19.337, -68.995], [14.506, -69.839], [9.285, -70.52], [3.732, -71.022], [-2.068, -71.329], [-8.0, -71.433], [-13.932, -71.329], [-19.732, -71.022], [-25.285, -70.52], [-30.506, -69.839], [-35.337, -68.995], [-39.756, -68.008], [-43.762, -66.896], [-47.372, -65.676], [-50.613, -64.363], [-53.517, -62.972], [-56.118, -61.513], [-58.449, -59.997], [-60.539, -58.431], [-62.417, -56.824], [-64.107, -55.18], [-65.63, -53.505], [-67.007, -51.803], [-68.253, -50.077], [-69.383, -48.331], [-70.41, -46.566], [-71.343, -44.786], [-72.194, -42.992], [-72.969, -41.186], [-73.677, -39.368], [-74.323, -37.541], [-74.913, -35.705], [-75.452, -33.862], [-75.944, -32.011], [-76.392, -30.155], [-76.8, -28.293], [-77.172, -26.426], [-77.508, -24.554], [-77.812, -22.679], [-78.085, -20.8], [-78.33, -18.918], [-78.547, -17.034], [-78.739, -15.147], [-78.905, -13.258], [-79.047, -11.367], [-79.166, -9.475], [-79.263, -7.581], [-79.337, -5.687], [-79.39, -3.791], [-79.422, -1.896], [-79.433, -0.0], [-79.422, 1.896], [-79.39, 3.791], [-79.337, 5.687], [-79.263, 7.581], [-79.166, 9.475], [-79.047, 11.367], [-78.905, 13.258], [-78.739, 15.147], [-78.547, 17.034], [-78.33, 18.918], [-78.085, 20.8], [-77.812, 22.679], [-77.508, 24.554], [-77.172, 26.426], [-76.8, 28.293], [-76.392, 30.155], [-75.944, 32.011], [-75.452, 33.862], [-74.913, 35.705], [-74.323, 37.541], [-73.677, 39.368], [-72.969, 41.186], [-72.194, 42.992], [-71.343, 44.786], [-70.41, 46.566], [-69.383, 48.331], [-68.253, 50.077], [-67.007, 51.803], [-65.63, 53.505], [-64.107, 55.18], [-62.417, 56.824], [-60.539, 58.431], [-58.449, 59.997], [-56.118, 61.513], [-53.517, 62.972], [-50.613, 64.363], [-47.372, 65.676], [-43.762, 66.896], [-39.756, 68.008], [-35.337, 68.995], [-30.506, 69.839], [-25.285, 70.52], [-19.732, 71.022], [-13.932, 71.329], [-8.0, 71.433]]]}}, {"type": "Feature", "properties": {"satellite": "Yahsat 1A", "lon": 52.5, "band": "Ku", "min_elevation": 10.0}, "geometry": {"type": "Polygon", "coordinates": [[[52.5, 71.433], [58.432, 71.329], [64.232, 71.022], [69.785, 70.52], [75.006, 69.839], [79.837, 68.995], [84.256, 68.008], [88.262, 66.896], [91.872, 65.676], [95.113, 64.363], [98.017, 62.972], [100.618, 61.513], [102.949, 59.997], [105.039, 58.431], [106.917, 56.824], [108.607, 55.18], [110.13, 53.505], [111.507, 51.803], [112.753, 50.077], [113.883, 48.331], [114.91, 46.566], [115.843, 44.786], [116.694, 42.992], [117.469, 41.186], [118.177, 39.368], [118.823, 37.541], [119.413, 35.705], [119.952, 33.862], [120.444, 32.011], [120.892, 30.155], [121.3, 28.293], [121.672, 26.426], [122.008, 24.554], [122.312, 22.679], [122.585, 20.8], [122.83, 18.918], [123.047, 17.034], [123.239, 15.147], [123.405, 13.258], [123.547, 11.367], [123.666, 9.475], [123.763, 7.581], [123.837, 5.687], [123.89, 3.791], [123.922, 1.896], [123.933, 0.0], [123.922, -1.896], [123.89, -3.791], [123.837, -5.687], [123.763, -7.581], [123.666, -9.475], [123.547, -11.367], [123.405, -13.258], [123.239, -15.147], [123.047, -17.034], [122.83, -18.918], [122.585, -20.8], [122.312, -22.679], [122.008, -24.554], [121.672, -26.426], [121.3, -28.293], [120.892, -30.155], [120.444, -32.011], [119.952, -33.862], [119.413, -35.705], [118.823, -37.541], [118.177, -39.368], [117.469, -41.186], [116.694, -42.992], [115.843, -44.786], [114.91, -46.566], [113.883, -48.331], [112.753, -50.077], [111.507, -51.803], [110.13, -53.505], [108.607, -55.18], [106.917, -56.824], [105.039, -58.431], [102.949, -59.997], [100.618, -61.513], [98.017, -62.972], [95.113, -64.363], [91.872, -65.676], [88.262, -66.896], [84.256, -68.008], [79.837, -68.995], [75.006, -69.839], [69.785, -70.52], [64.232, -71.022], [58.432, -71.329], [52.5, -71.433], [46.568, -71.329], [40.768, -71.022], [35.215, -70.52], [29.994, -69.839], [25.163, -68.995], [20.744, -68.008], [16.738, -66.896], [13.128, -65.676], [9.887, -64.363], [6.983, -62.972], [4.382, -61.513], [2.051, -59.997], [-0.039, -58.431], [-1.917, -56.824], [-3.607, -55.18], [-5.13, -53.505], [-6.507, -51.803], [-7.753, -50.077], [-8.883, -48.331], [-9.91, -46.566], [-10.843, -44.786], [-11.694, -42.992], [-12.469, -41.186], [-13.177, -39.368], [-13.823, -37.541], [-14.413, -35.705], [-14.952, -33.862], [-15.444, -32.011], [-15.892, -30.155], [-16.3, -28.293], [-16.672, -26.426], [-17.008, -24.554], [-17.312, -22.679], [-17.585, -20.8], [-17.83, -18.918], [-18.047, -17.034], [-18.239, -15.147], [-18.405, -13.258], [-18.547, -11.367], [-18.666, -9.475], [-18.763, -7.581], [-18.837, -5.687], [-18.89, -3.791], [-18.922, -1.896], [-18.933, -0.0], [-18.922, 1.896], [-18.89, 3.791], [-18.837, 5.687], [-18.763, 7.581], [-18.666, 9.475], [-18.547, 11.367], [-18.405, 13.258], [-18.239, 15.147], [-18.047, 17.034], [-17.83, 18.918], [-17.585, 20.8], [-17.312, 22.679], [-17.008, 24.554], [-16.672, 26.426], [-16.3, 28.293], [-15.892, 30.155], [-15.444, 32.011], [-14.952, 33.862], [-14.413, 35.705], [-13.823, 37.541], [-13.177, 39.368], [-12.469, 41.186], [-11.694, 42.992], [-10.843, 44.786], [-9.91, 46.566], [-8.883, 48.331], [-7.753, 50.077], [-6.507, 51.803], [-5.13, 53.505], [-3.607, 55.18], [-1.917, 56.824], [-0.039, 58.431], [2.051, 59.997], [4.382, 61.513], [6.983, 62.972], [9.887, 64.363], [13.128, 65.676], [16.738, 66.896], [20.744, 68.008], [25.163, 68.995], [29.994, 69.839], [35.215, 70.52], [40.768, 71.022], [46.568, 71.329], [52.5, 71.433]]]}}, {"type": "Feature", "properties": {"satellite": "Galaxy 19", "lon": -97.0, "band": "Ku", "min_elevation": 10.0}, "geometry": {"type": "Polygon", "coordinates": [[[-97.0, 71.433], [-91.068, 71.329], [-85.268, 71.022], [-79.715, 70.52], [-74.494, 69.839], [-69.663, 68.995], [-65.244, 68.008], [-61.238, 66.896], [-57.628, 65.676], [-54.387, 64.363], [-51.483, 62.972], [-48.882, 61.513], [-46.551, 59.997], [-44.461, 58.431], [-42.583, 56.824], [-40.893, 55.18], [-39.37, 53.505], [-37.993, 51.803], [-36.747, 50.077], [-35.617, 48.331], [-34.59, 46.566], [-33.657, 44.786], [-32.806, 42.992], [-32.031, 41.186], [-31.323, 39.368], [-30.677, 37.541], [-30.087, 35.705], [-29.548, 33.862], [-29.056, 32.011], [-28.608, 30.155], [-28.2, 28.293], [-27.828, 26.426], [-27.492, 24.554], [-27.188, 22.679], [-26.915, 20.8], [-26.67, 18.918], [-26.453, 17.034], [-26.261, 15.147], [-26.095, 13.258], [-25.953, 11.367], [-25.834, 9.475], [-25.737, 7.581], [-25.663, 5.687], [-25.61, 3.791], [-25.578, 1.896], [-25.567, 0.0], [-25.578, -1.896], [-25.61, -3.791], [-25.663, -5.687], [-25.737, -7.581], [-25.834, -9.475], [-25.953, -11.367], [-26.095, -13.258], [-26.261, -15.147], [-26.453, -17.034], [-26.67, -18.918], [-26.915, -20.8], [-27.188, -22.679], [-27.492, -24.554], [-27.828, -26.426], [-28.2, -28.293], [-28.608, -30.155], [-29.056, -32.011], [-29.548, -33.862], [-30.087, -35.705], [-30.677, -37.541], [-31.323, -39.368], [-32.031, -41.186], [-32.806, -42.992], [-33.657, -44.786], [-34.59, -46.566], [-35.617, -48.331], [-36.747, -50.077], [-37.993, -51.803], [-39.37, -53.505], [-40.893, -55.18], [-42.583, -56.824], [-44.461, -58.431], [-46.551, -59.997], [-48.882, -61.513], [-51.483, -62.972], [-54.387, -64.363], [-57.628, -65.676], [-61.238, -66.896], [-65.244, -68.008], [-69.663, -68.995], [-74.494, -69.839], [-79.715, -70.52], [-85.268, -71.022], [-91.068, -71.329], [-97.0, -71.433], [-102.932, -71.329], [-108.732, -71.022], [-114.285, -70.52], [-119.506, -69.839], [-124.337, -68.995], [-128.756, -68.008], [-132.762, -66.896], [-136.372, -65.676], [-139.613, -64.363], [-142.517, -62.972], [-145.118, -61.513], [-147.449, -59.997], [-149.539, -58.431], [-151.417, -56.824], [-153.107, -55.18], [-154.63, -53.505], [-156.007, -51.803], [-157.253, -50.077], [-158.383, -48.331], [-159.41, -46.566], [-160.343, -44.786], [-161.194, -42.992], [-161.969, -41.186], [-162.677, -39.368], [-163.323, -37.541], [-163.913, -35.705], [-164.452, -33.862], [-164.944, -32.011], [-165.392, -30.155], [-165.8, -28.293], [-166.172, -26.426], [-166.508, -24.554], [-166.812, -22.679], [-167.085, -20.8], [-167.33, -18.918], [-167.547, -17.034], [-167.739, -15.147], [-167.905, -13.258], [-168.047, -11.367], [-168.166, -9.475], [-168.263, -7.581], [-168.337, -5.687], [-168.39, -3.791], [-168.422, -1.896], [-168.433, -0.0], [-168.422, 1.896], [-168.39, 3.791], [-168.337, 5.687], [-168.263, 7.581], [-168.166, 9.475], [-168.047, 11.367], [-167.905, 13.258], [-167.739, 15.147], [-167.547, 17.034], [-167.33, 18.918], [-167.085, 20.8], [-166.812, 22.679], [-166.508, 24.554], [-166.172, 26.426], [-165.8, 28.293], [-165.392, 30.155], [-164.944, 32.011], [-164.452, 33.862], [-163.913, 35.705], [-163.323, 37.541], [-162.677, 39.368], [-161.969, 41.186], [-161.194, 42.992], [-160.343, 44.786], [-159.41, 46.566], [-158.383, 48.331], [-157.253, 50.077], [-156.007, 51.803], [-154.63, 53.505], [-153.107, 55.18], [-151.417, 56.824], [-149.539, 58.431], [-147.449, 59.997], [-145.118, 61.513], [-142.517, 62.972], [-139.613, 64.363], [-136.372, 65.676], [-132.762, 66.896], [-128.756, 68.008], [-124.337, 68.995], [-119.506, 69.839], [-114.285, 70.52], [-108.732, 71.022], [-102.932, 71.329], [-97.0, 71.433]]]}}, {"type": "Feature", "properties": {"satellite": "Intelsat 20", "lon": 68.5, "band": "Ku", "min_elevation": 10.0}, "geometry": {"type": "Polygon", "coordinates": [[[68.5, 71.433], [74.432, 71.329], [80.232, 71.022], [85.785, 70.52], [91.006, 69.839], [95.837, 68.995], [100.256, 68.008], [104.262, 66.896], [107.872, 65.676], [111.113, 64.363], [114.017, 62.972], [116.618, 61.513], [118.949, 59.997], [121.039, 58.431], [122.917, 56.824], [124.607, 55.18], [126.13, 53.505], [127.507, 51.803], [128.753, 50.077], [129.883, 48.331], [130.91, 46.566], [131.843, 44.786], [132.694, 42.992], [133.469, 41.186], [134.177, 39.368], [134.823, 37.541], [135.413, 35.705], [135.952, 33.862], [136.444, 32.011], [136.892, 30.155], [137.3, 28.293], [137.672, 26.426], [138.008, 24.554], [138.312, 22.679], [138.585, 20.8], [138.83, 18.918], [139.047, 17.034], [139.239, 15.147], [139.405, 13.258], [139.547, 11.367], [139.666, 9.475], [139.763, 7.581], [139.837, 5.687], [139.89, 3.791], [139.922, 1.896], [139.933, 0.0], [139.922, -1.896], [139.89, -3.791], [139.837, -5.687], [139.763, -7.581], [139.666, -9.475], [139.547, -11.367], [139.405, -13.258], [139.239, -15.147], [139.047, -17.034], [138.83, -18.918], [138.585, -20.8], [138.312, -22.679], [138.008, -24.554], [137.672, -26.426], [137.3, -28.293], [136.892, -30.155], [136.444, -32.011], [135.952, -33.862], [135.413, -35.705], [134.823, -37.541], [134.177, -39.368], [133.469, -41.186], [132.694, -42.992], [131.843, -44.786], [130.91, -46.566], [129.883, -48.331], [128.753, -50.077], [127.507, -51.803], [126.13, -53.505], [124.607, -55.18], [122.917, -56.824], [121.039, -58.431], [118.949, -59.997], [116.618, -61.513], [114.017, -62.972], [111.113, -64.363], [107.872, -65.676], [104.262, -66.896], [100.256, -68.008], [95.837, -68.995], [91.006, -69.839], [85.785, -70.52], [80.232, -71.022], [74.432, -71.329], [68.5, -71.433], [62.568, -71.329], [56.768, -71.022], [51.215, -70.52], [45.994, -69.839], [41.163, -68.995], [36.744, -68.008], [32.738, -66.896], [29.128, -65.676], [25.887, -64.363], [22.983, -62.972], [20.382, -61.513], [18.051, -59.997], [15.961, -58.431], [14.083, -56.824], [12.393, -55.18], [10.87, -53.505], [9.493, -51.803], [8.247, -50.077], [7.117, -48.331], [6.09, -46.566], [5.157, -44.786], [4.306, -42.992], [3.531, -41.186], [2.823, -39.368], [2.177, -37.541], [1.587, -35.705], [1.048, -33.862], [0.556, -32.011], [0.108, -30.155], [-0.3, -28.293], [-0.672, -26.426], [-1.008, -24.554], [-1.312, -22.679], [-1.585, -20.8], [-1.83, -18.918], [-2.047, -17.034], [-2.239, -15.147], [-2.405, -13.258], [-2.547, -11.367], [-2.666, -9.475], [-2.763, -7.581], [-2.837, -5.687], [-2.89, -3.791], [-2.922, -1.896], [-2.933, -0.0], [-2.922, 1.896], [-2.89, 3.791], [-2.837, 5.687], [-2.763, 7.581], [-2.666, 9.475], [-2.547, 11.367], [-2.405, 13.258], [-2.239, 15.147], [-2.047, 17.034], [-1.83, 18.918], [-1.585, 20.8], [-1.312, 22.679], [-1.008, 24.554], [-0.672, 26.426], [-0.3, 28.293], [0.108, 30.155], [0.556, 32.011], [1.048, 33.862], [1.587, 35.705], [2.177, 37.541], [2.823, 39.368], [3.531, 41.186], [4.306, 42.992], [5.157, 44.786], [6.09, 46.566], [7.117, 48.331], [8.247, 50.077], [9.493, 51.803], [10.87, 53.505], [12.393, 55.18], [14.083, 56.824], [15.961, 58.431], [18.051, 59.997], [20.382, 61.513], [22.983, 62.972], [25.887, 64.363], [29.128, 65.676], [32.738, 66.896], [36.744, 68.008], [41.163, 68.995], [45.994, 69.839], [51.215, 70.52], [56.768, 71.022], [62.568, 71.329], [68.5, 71.433]]]}}, {"type": "Feature", "properties": {"satellite": "AsiaSat 5", "lon": 100.5, "band": "C", "min_elevation": 10.0}, "geometry": {"type": "Polygon", "coordinates": [[[100.5, 71.433], [106.432, 71.329], [112.232, 71.022], [117.785, 70.52], [123.006, 69.839], [127.837, 68.995], [132.256, 68.008], [136.262, 66.896], [139.872, 65.676], [143.113, 64.363], [146.017, 62.972], [148.618, 61.513], [150.949, 59.997], [153.039, 58.431], [154.917, 56.824], [156.607, 55.18], [158.13, 53.505], [159.507, 51.803], [160.753, 50.077], [161.883, 48.331], [162.91, 46.566], [163.843, 44.786], [164.694, 42.992], [165.469, 41.186], [166.177, 39.368], [166.823, 37.541], [167.413, 35.705], [167.952, 33.862], [168.444, 32.011], [168.892, 30.155], [169.3, 28.293], [169.672, 26.426], [170.008, 24.554], [170.312, 22.679], [170.585, 20.8], [170.83, 18.918], [171.047, 17.034], [171.239, 15.147], [171.405, 13.258], [171.547, 11.367], [171.666, 9.475], [171.763, 7.581], [171.837, 5.687], [171.89, 3.791], [171.922, 1.896], [171.933, 0.0], [171.922, -1.896], [171.89, -3.791], [171.837, -5.687], [171.763, -7.581], [171.666, -9.475], [171.547, -11.367], [171.405, -13.258], [171.239, -15.147], [171.047, -17.034], [170.83, -18.918], [170.585, -20.8], [170.312, -22.679], [170.008, -24.554], [169.672, -26.426], [169.3, -28.293], [168.892, -30.155], [168.444, -32.011], [167.952, -33.862], [167.413, -35.705], [166.823, -37.541], [166.177, -39.368], [165.469, -41.186], [164.694, -42.992], [163.843, -44.786], [162.91, -46.566], [161.883, -48.331], [160.753, -50.077], [159.507, -51.803], [158.13, -53.505], [156.607, -55.18], [154.917, -56.824], [153.039, -58.431], [150.949, -59.997], [148.618, -61.513], [146.017, -62.972], [143.113, -64.363], [139.872, -65.676], [136.262, -66.896], [132.256, -68.008], [127.837, -68.995], [123.006, -69.839], [117.785, -70.52], [112.232, -71.022], [106.432, -71.329], [100.5, -71.433], [94.568, -71.329], [88.768, -71.022], [83.215, -70.52], [77.994, -69.839], [73.163, -68.995], [68.744, -68.008], [64.738, -66.896], [61.128, -65.676], [57.887, -64.363], [54.983, -62.972], [52.382, -61.513], [50.051, -59.997], [47.961, -58.431], [46.083, -56.824], [44.393, -55.18], [42.87, -53.505], [41.493, -51.803], [40.247, -50.077], [39.117, -48.331], [38.09, -46.566], [37.157, -44.786], [36.306, -42.992], [35.531, -41.186], [34.823, -39.368], [34.177, -37.541], [33.587, -35.705], [33.048, -33.862], [32.556, -32.011], [32.108, -30.155], [31.7, -28.293], [31.328, -26.426], [30.992, -24.554], [30.688, -22.679], [30.415, -20.8], [30.17, -18.918], [29.953, -17.034], [29.761, -15.147], [29.595, -13.258], [29.453, -11.367], [29.334, -9.475], [29.237, -7.581], [29.163, -5.687], [29.11, -3.791], [29.078, -1.896], [29.067, -0.0], [29.078, 1.896], [29.11, 3.791], [29.163, 5.687], [29.237, 7.581], [29.334, 9.475], [29.453, 11.367], [29.595, 13.258], [29.761, 15.147], [29.953, 17.034], [30.17, 18.918], [30.415, 20.8], [30.688, 22.679], [30.992, 24.554], [31.328, 26.426], [31.7, 28.293], [32.108, 30.155], [32.556, 32.011], [33.048, 33.862], [33.587, 35.705], [34.177, 37.541], [34.823, 39.368], [35.531, 41.186], [36.306, 42.992], [37.157, 44.786], [38.09, 46.566], [39.117, 48.331], [40.247, 50.077], [41.493, 51.803], [42.87, 53.505], [44.393, 55.18], [46.083, 56.824], [47.961, 58.431], [50.051, 59.997], [52.382, 61.513], [54.983, 62.972], [57.887, 64.363], [61.128, 65.676], [64.738, 66.896], [68.744, 68.008], [73.163, 68.995], [77.994, 69.839], [83.215, 70.52], [88.768, 71.022], [94.568, 71.329], [100.5, 71.433]]]}}, {"type": "Feature", "properties": {"satellite": "AsiaSat 7", "lon": 105.5, "band": "C", "min_elevation": 10.0}, "geometry": {"type": "Polygon", "coordinates": [[[105.5, 71.433], [111.432, 71.329], [117.232, 71.022], [122.785, 70.52], [128.006, 69.839], [132.837, 68.995], [137.256, 68.008], [141.262, 66.896], [144.872, 65.676], [148.113, 64.363], [151.017, 62.972], [153.618, 61.513], [155.949, 59.997], [158.039, 58.431], [159.917, 56.824], [161.607, 55.18], [163.13, 53.505], [164.507, 51.803], [165.753, 50.077], [166.883, 48.331], [167.91, 46.566], [168.843, 44.786], [169.694, 42.992], [170.469, 41.186], [171.177, 39.368], [171.823, 37.541], [172.413, 35.705], [172.952, 33.862], [173.444, 32.011], [173.892, 30.155], [174.3, 28.293], [174.672, 26.426], [175.008, 24.554], [175.312, 22.679], [175.585, 20.8], [175.83, 18.918], [176.047, 17.034], [176.239, 15.147], [176.405, 13.258], [176.547, 11.367], [176.666, 9.475], [176.763, 7.581], [176.837, 5.687], [176.89, 3.791], [176.922, 1.896], [176.933, 0.0], [176.922, -1.896], [176.89, -3.791], [176.837, -5.687], [176.763, -7.581], [176.666, -9.475], [176.547, -11.367], [176.405, -13.258], [176.239, -15.147], [176.047, -17.034], [175.83, -18.918], [175.585, -20.8], [175.312, -22.679], [175.008, -24.554], [174.672, -26.426], [174.3, -28.293], [173.892, -30.155], [173.444, -32.011], [172.952, -33.862], [172.413, -35.705], [171.823, -37.541], [171.177, -39.368], [170.469, -41.186], [169.694, -42.992], [168.843, -44.786], [167.91, -46.566], [166.883, -48.331], [165.753, -50.077], [164.507, -51.803], [163.13, -53.505], [161.607, -55.18], [159.917, -56.824], [158.039, -58.431], [155.949, -59.997], [153.618, -61.513], [151.017, -62.972], [148.113, -64.363], [144.872, -65.676], [141.262, -66.896], [137.256, -68.008], [132.837, -68.995], [128.006, -69.839], [122.785, -70.52], [117.232, -71.022], [111.432, -71.329], [105.5, -71.433], [99.568, -71.329], [93.768, -71.022], [88.215, -70.52], [82.994, -69.839], [78.163, -68.995], [73.744, -68.008], [69.738, -66.896], [66.128, -65.676], [62.887, -64.363], [59.983, -62.972], [57.382, -61.513], [55.051, -59.997], [52.961, -58.431], [51.083, -56.824], [49.393, -55.18], [47.87, -53.505], [46.493, -51.803], [45.247, -50.077], [44.117, -48.331], [43.09, -46.566], [42.157, -44.786], [41.306, -42.992], [40.531, -41.186], [39.823, -39.368], [39.177, -37.541], [38.587, -35.705], [38.048, -33.862], [37.556, -32.011], [37.108, -30.155], [36.7, -28.293], [36.328, -26.426], [35.992, -24.554], [35.688, -22.679], [35.415, -20.8], [35.17, -18.918], [34.953, -17.034], [34.761, -15.147], [34.595, -13.258], [34.453, -11.367], [34.334, -9.475], [34.237, -7.581], [34.163, -5.687], [34.11, -3.791], [34.078, -1.896], [34.067, -0.0], [34.078, 1.896], [34.11, 3.791], [34.163, 5.687], [34.237, 7.581], [34.334, 9.475], [34.453, 11.367], [34.595, 13.258], [34.761, 15.147], [34.953, 17.034], [35.17, 18.918], [35.415, 20.8], [35.688, 22.679], [35.992, 24.554], [36.328, 26.426], [36.7, 28.293], [37.108, 30.155], [37.556, 32.011], [38.048, 33.862], [38.587, 35.705], [39.177, 37.541], [39.823, 39.368], [40.531, 41.186], [41.306, 42.992], [42.157, 44.786], [43.09, 46.566], [44.117, 48.331], [45.247, 50.077], [46.493, 51.803], [47.87, 53.505], [49.393, 55.18], [51.083, 56.824], [52.961, 58.431], [55.051, 59.997], [57.382, 61.513], [59.983, 62.972], [62.887, 64.363], [66.128, 65.676], [69.738, 66.896], [73.744, 68.008], [78.163, 68.995], [82.994, 69.839], [88.215, 70.52], [93.768, 71.022], [99.568, 71.329], [105.5, 71.433]]]}}, {"type": "Feature", "properties": {"satellite": "Eutelsat 16A", "lon": 16.0, "band": "Ku", "min_elevation": 10.0}, "geometry": {"type": "Polygon", "coordinates": [[[16.0, 71.433], [21.932, 71.329], [27.732, 71.022], [33.285, 70.52], [38.506, 69.839], [43.337, 68.995], [47.756, 68.008], [51.762, 66.896], [55.372, 65.676], [58.613, 64.363], [61.517, 62.972], [64.118, 61.513], [66.449, 59.997], [68.539, 58.431], [70.417, 56.824], [72.107, 55.18], [73.63, 53.505], [75.007, 51.803], [76.253, 50.077], [77.383, 48.331], [78.41, 46.566], [79.343, 44.786], [80.194, 42.992], [80.969, 41.186], [81.677, 39.368], [82.323, 37.541], [82.913, 35.705], [83.452, 33.862], [83.944, 32.011], [84.392, 30.155], [84.8, 28.293], [85.172, 26.426], [85.508, 24.554], [85.812, 22.679], [86.085, 20.8], [86.33, 18.918], [86.547, 17.034], [86.739, 15.147], [86.905, 13.258], [87.047, 11.367], [87.166, 9.475], [87.263, 7.581], [87.337, 5.687], [87.39, 3.791], [87.422, 1.896], [87.433, 0.0], [87.422, -1.896], [87.39, -3.791], [87.337, -5.687], [87.263, -7.581], [87.166, -9.475], [87.047, -11.367], [86.905, -13.258], [86.739, -15.147], [86.547, -17.034], [86.33, -18.918], [86.085, -20.8], [85.812, -22.679], [85.508, -24.554], [85.172, -26.426], [84.8, -28.293], [84.392, -30.155], [83.944, -32.011], [83.452, -33.862], [82.913, -35.705], [82.323, -37.541], [81.677, -39.368], [80.969, -41.186], [80.194, -42.992], [79.343, -44.786], [78.41, -46.566], [77.383, -48.331], [76.253, -50.077], [75.007, -51.803], [73.63, -53.505], [72.107, -55.18], [70.417, -56.824], [68.539, -58.431], [66.449, -59.997], [64.118, -61.513], [61.517, -62.972], [58.613, -64.363], [55.372, -65.676], [51.762, -66.896], [47.756, -68.008], [43.337, -68.995], [38.506, -69.839], [33.285, -70.52], [27.732, -71.022], [21.932, -71.329], [16.0, -71.433], [10.068, -71.329], [4.268, -71.022], [-1.285, -70.52], [-6.506, -69.839], [-11.337, -68.995], [-15.756, -68.008], [-19.762, -66.896], [-23.372, -65.676], [-26.613, -64.363], [-29.517, -62.972], [-32.118, -61.513], [-34.449, -59.997], [-36.539, -58.431], [-38.417, -56.824], [-40.107, -55.18], [-41.63, -53.505], [-43.007, -51.803], [-44.253, -50.077], [-45.383, -48.331], [-46.41, -46.566], [-47.343, -44.786], [-48.194, -42.992], [-48.969, -41.186], [-49.677, -39.368], [-50.323, -37.541], [-50.913, -35.705], [-51.452, -33.862], [-51.944, -32.011], [-52.392, -30.155], [-52.8, -28.293], [-53.172, -26.426], [-53.508, -24.554], [-53.812, -22.679], [-54.085, -20.8], [-54.33, -18.918], [-54.547, -17.034], [-54.739, -15.147], [-54.905, -13.258], [-55.047, -11.367], [-55.166, -9.475], [-55.263, -7.581], [-55.337, -5.687], [-55.39, -3.791], [-55.422, -1.896], [-55.433, -0.0], [-55.422, 1.896], [-55.39, 3.791], [-55.337, 5.687], [-55.263, 7.581], [-55.166, 9.475], [-55.047, 11.367], [-54.905, 13.258], [-54.739, 15.147], [-54.547, 17.034], [-54.33, 18.918], [-54.085, 20.8], [-53.812, 22.679], [-53.508, 24.554], [-53.172, 26.426], [-52.8, 28.293], [-52.392, 30.155], [-51.944, 32.011], [-51.452, 33.862], [-50.913, 35.705], [-50.323, 37.541], [-49.677, 39.368], [-48.969, 41.186], [-48.194, 42.992], [-47.343, 44.786], [-46.41, 46.566], [-45.383, 48.331], [-44.253, 50.077], [-43.007, 51.803], [-41.63, 53.505], [-40.107, 55.18], [-38.417, 56.824], [-36.539, 58.431], [-34.449, 59.997], [-32.118, 61.513], [-29.517, 62.972], [-26.613, 64.363], [-23.372, 65.676], [-19.762, 66.896], [-15.756, 68.008], [-11.337, 68.995], [-6.506, 69.839], [-1.285, 70.52], [4.268, 71.022], [10.068, 71.329], [16.0, 71.433]]]}}, {"type": "Feature", "properties": {"satellite": "Eutelsat 5 West A", "lon": -5.0, "band": "C", "min_elevation": 10.0}, "geometry": {"type": "Polygon", "coordinates": [[[-5.0, 71.433], [0.932, 71.329], [6.732, 71.022], [12.285, 70.52], [17.506, 69.839], [22.337, 68.995], [26.756, 68.008], [30.762, 66.896], [34.372, 65.676], [37.613, 64.363], [40.517, 62.972], [43.118, 61.513], [45.449, 59.997], [47.539, 58.431], [49.417, 56.824], [51.107, 55.18], [52.63, 53.505], [54.007, 51.803], [55.253, 50.077], [56.383, 48.331], [57.41, 46.566], [58.343, 44.786], [59.194, 42.992], [59.969, 41.186], [60.677, 39.368], [61.323, 37.541], [61.913, 35.705], [62.452, 33.862], [62.944, 32.011], [63.392, 30.155], [63.8, 28.293], [64.172, 26.426], [64.508, 24.554], [64.812, 22.679], [65.085, 20.8], [65.33, 18.918], [65.547, 17.034], [65.739, 15.147], [65.905, 13.258], [66.047, 11.367], [66.166, 9.475], [66.263, 7.581], [66.337, 5.687], [66.39, 3.791], [66.422, 1.896], [66.433, 0.0], [66.422, -1.896], [66.39, -3.791], [66.337, -5.687], [66.263, -7.581], [66.166, -9.475], [66.047, -11.367], [65.905, -13.258], [65.739, -15.147], [65.547, -17.034], [65.33, -18.918], [65.085, -20.8], [64.812, -22.679], [64.508, -24.554], [64.172, -26.426], [63.8, -28.293], [63.392, -30.155], [62.944, -32.011], [62.452, -33.862], [61.913, -35.705], [61.323, -37.541], [60.677, -39.368], [59.969, -41.186], [59.194, -42.992], [58.343, -44.786], [57.41, -46.566], [56.383, -48.331], [55.253, -50.077], [54.007, -51.803], [52.63, -53.505], [51.107, -55.18], [49.417, -56.824], [47.539, -58.431], [45.449, -59.997], [43.118, -61.513], [40.517, -62.972], [37.613, -64.363], [34.372, -65.676], [30.762, -66.896], [26.756, -68.008], [22.337, -68.995], [17.506, -69.839], [12.285, -70.52], [6.732, -71.022], [0.932, -71.329], [-5.0, -71.433], [-10.932, -71.329], [-16.732, -71.022], [-22.285, -70.52], [-27.506, -69.839], [-32.337, -68.995], [-36.756, -68.008], [-40.762, -66.896], [-44.372, -65.676], [-47.613, -64.363], [-50.517, -62.972], [-53.118, -61.513], [-55.449, -59.997], [-57.539, -58.431], [-59.417, -56.824], [-61.107, -55.18], [-62.63, -53.505], [-64.007, -51.803], [-65.253, -50.077], [-66.383, -48.331], [-67.41, -46.566], [-68.343, -44.786], [-69.194, -42.992], [-69.969, -41.186], [-70.677, -39.368], [-71.323, -37.541], [-71.913, -35.705], [-72.452, -33.862], [-72.944, -32.011], [-73.392, -30.155], [-73.8, -28.293], [-74.172, -26.426], [-74.508, -24.554], [-74.812, -22.679], [-75.085, -20.8], [-75.33, -18.918], [-75.547, -17.034], [-75.739, -15.147], [-75.905, -13.258], [-76.047, -11.367], [-76.166, -9.475], [-76.263, -7.581], [-76.337, -5.687], [-76.39, -3.791], [-76.422, -1.896], [-76.433, -0.0], [-76.422, 1.896], [-76.39, 3.791], [-76.337, 5.687], [-76.263, 7.581], [-76.166, 9.475], [-76.047, 11.367], [-75.905, 13.258], [-75.739, 15.147], [-75.547, 17.034], [-75.33, 18.918], [-75.085, 20.8], [-74.812, 22.679], [-74.508, 24.554], [-74.172, 26.426], [-73.8, 28.293], [-73.392, 30.155], [-72.944, 32.011], [-72.452, 33.862], [-71.913, 35.705], [-71.323, 37.541], [-70.677, 39.368], [-69.969, 41.186], [-69.194, 42.992], [-68.343, 44.786], [-67.41, 46.566], [-66.383, 48.331], [-65.253, 50.077], [-64.007, 51.803], [-62.63, 53.505], [-61.107, 55.18], [-59.417, 56.824], [-57.539, 58.431], [-55.449, 59.997], [-53.118, 61.513], [-50.517, 62.972], [-47.613, 64.363], [-44.372, 65.676], [-40.762, 66.896], [-36.756, 68.008], [-32.337, 68.995], [-27.506, 69.839], [-22.285, 70.52], [-16.732, 71.022], [-10.932, 71.329], [-5.0, 71.433]]]}}, {"type": "Feature", "properties": {"satellite": "SES-5", "lon": 5.0, "band": "Ka/Ku", "min_elevation": 10.0}, "geometry": {"type": "Polygon", "coordinates": [[[5.0, 71.433], [10.932, 71.329], [16.732, 71.022], [22.285, 70.52], [27.506, 69.839], [32.337, 68.995], [36.756, 68.008], [40.762, 66.896], [44.372, 65.676], [47.613, 64.363], [50.517, 62.972], [53.118, 61.513], [55.449, 59.997], [57.539, 58.431], [59.417, 56.824], [61.107, 55.18], [62.63, 53.505], [64.007, 51.803], [65.253, 50.077], [66.383, 48.331], [67.41, 46.566], [68.343, 44.786], [69.194, 42.992], [69.969, 41.186], [70.677, 39.368], [71.323, 37.541], [71.913, 35.705], [72.452, 33.862], [72.944, 32.011], [73.392, 30.155], [73.8, 28.293], [74.172, 26.426], [74.508, 24.554], [74.812, 22.679], [75.085, 20.8], [75.33, 18.918], [75.547, 17.034], [75.739, 15.147], [75.905, 13.258], [76.047, 11.367], [76.166, 9.475], [76.263, 7.581], [76.337, 5.687], [76.39, 3.791], [76.422, 1.896], [76.433, 0.0], [76.422, -1.896], [76.39, -3.791], [76.337, -5.687], [76.263, -7.581], [76.166, -9.475], [76.047, -11.367], [75.905, -13.258], [75.739, -15.147], [75.547, -17.034], [75.33, -18.918], [75.085, -20.8], [74.812, -22.679], [74.508, -24.554], [74.172, -26.426], [73.8, -28.293], [73.392, -30.155], [72.944, -32.011], [72.452, -33.862], [71.913, -35.705], [71.323, -37.541], [70.677, -39.368], [69.969, -41.186], [69.194, -42.992], [68.343, -44.786], [67.41, -46.566], [66.383, -48.331], [65.253, -50.077], [64.007, -51.803], [62.63, -53.505], [61.107, -55.18], [59.417, -56.824], [57.539, -58.431], [55.449, -59.997], [53.118, -61.513], [50.517, -62.972], [47.613, -64.363], [44.372, -65.676], [40.762, -66.896], [36.756, -68.008], [32.337, -68.995], [27.506, -69.839], [22.285, -70.52], [16.732, -71.022], [10.932, -71.329], [5.0, -71.433], [-0.932, -71.329], [-6.732, -71.022], [-12.285, -70.52], [-17.506, -69.839], [-22.337, -68.995], [-26.756, -68.008], [-30.762, -66.896], [-34.372, -65.676], [-37.613, -64.363], [-40.517, -62.972], [-43.118, -61.513], [-45.449, -59.997], [-47.539, -58.431], [-49.417, -56.824], [-51.107, -55.18], [-52.63, -53.505], [-54.007, -51.803], [-55.253, -50.077], [-56.383, -48.331], [-57.41, -46.566], [-58.343, -44.786], [-59.194, -42.992], [-59.969, -41.186], [-60.677, -39.368], [-61.323, -37.541], [-61.913, -35.705], [-62.452, -33.862], [-62.944, -32.011], [-63.392, -30.155], [-63.8, -28.293], [-64.172, -26.426], [-64.508, -24.554], [-64.812, -22.679], [-65.085, -20.8], [-65.33, -18.918], [-65.547, -17.034], [-65.739, -15.147], [-65.905, -13.258], [-66.047, -11.367], [-66.166, -9.475], [-66.263, -7.581], [-66.337, -5.687], [-66.39, -3.791], [-66.422, -1.896], [-66.433, -0.0], [-66.422, 1.896], [-66.39, 3.791], [-66.337, 5.687], [-66.263, 7.581], [-66.166, 9.475], [-66.047, 11.367], [-65.905, 13.258], [-65.739, 15.147], [-65.547, 17.034], [-65.33, 18.918], [-65.085, 20.8], [-64.812, 22.679], [-64.508, 24.554], [-64.172, 26.426], [-63.8, 28.293], [-63.392, 30.155], [-62.944, 32.011], [-62.452, 33.862], [-61.913, 35.705], [-61.323, 37.541], [-60.677, 39.368], [-59.969, 41.186], [-59.194, 42.992], [-58.343, 44.786], [-57.41, 46.566], [-56.383, 48.331], [-55.253, 50.077], [-54.007, 51.803], [-52.63, 53.505], [-51.107, 55.18], [-49.417, 56.824], [-47.539, 58.431], [-45.449, 59.997], [-43.118, 61.513], [-40.517, 62.972], [-37.613, 64.363], [-34.372, 65.676], [-30.762, 66.896], [-26.756, 68.008], [-22.337, 68.995], [-17.506, 69.839], [-12.285, 70.52], [-6.732, 71.022], [-0.932, 71.329], [5.0, 71.433]]]}}, {"type": "Feature", "properties": {"satellite": "Africasat-1a", "lon": 46.0, "band": "C", "min_elevation": 10.0}, "geometry": {"type": "Polygon", "coordinates": [[[46.0, 71.433], [51.932, 71.329], [57.732, 71.022], [63.285, 70.52], [68.506, 69.839], [73.337, 68.995], [77.756, 68.008], [81.762, 66.896], [85.372, 65.676], [88.613, 64.363], [91.517, 62.972], [94.118, 61.513], [96.449, 59.997], [98.539, 58.431], [100.417, 56.824], [102.107, 55.18], [103.63, 53.505], [105.007, 51.803], [106.253, 50.077], [107.383, 48.331], [108.41, 46.566], [109.343, 44.786], [110.194, 42.992], [110.969, 41.186], [111.677, 39.368], [112.323, 37.541], [112.913, 35.705], [113.452, 33.862], [113.944, 32.011], [114.392, 30.155], [114.8, 28.293], [115.172, 26.426], [115.508, 24.554], [115.812, 22.679], [116.085, 20.8], [116.33, 18.918], [116.547, 17.034], [116.739, 15.147], [116.905, 13.258], [117.047, 11.367], [117.166, 9.475], [117.263, 7.581], [117.337, 5.687], [117.39, 3.791], [117.422, 1.896], [117.433, 0.0], [117.422, -1.896], [117.39, -3.791], [117.337, -5.687], [117.263, -7.581], [117.166, -9.475], [117.047, -11.367], [116.905, -13.258], [116.739, -15.147], [116.547, -17.034], [116.33, -18.918], [116.085, -20.8], [115.812, -22.679], [115.508, -24.554], [115.172, -26.426], [114.8, -28.293], [114.392, -30.155], [113.944, -32.011], [113.452, -33.862], [112.913, -35.705], [112.323, -37.541], [111.677, -39.368], [110.969, -41.186], [110.194, -42.992], [109.343, -44.786], [108.41, -46.566], [107.383, -48.331], [106.253, -50.077], [105.007, -51.803], [103.63, -53.505], [102.107, -55.18], [100.417, -56.824], [98.539, -58.431], [96.449, -59.997], [94.118, -61.513], [91.517, -62.972], [88.613, -64.363], [85.372, -65.676], [81.762, -66.896], [77.756, -68.008], [73.337, -68.995], [68.506, -69.839], [63.285, -70.52], [57.732, -71.022], [51.932, -71.329], [46.0, -71.433], [40.068, -71.329], [34.268, -71.022], [28.715, -70.52], [23.494, -69.839], [18.663, -68.995], [14.244, -68.008], [10.238, -66.896], [6.628, -65.676], [3.387, -64.363], [0.483, -62.972], [-2.118, -61.513], [-4.449, -59.997], [-6.539, -58.431], [-8.417, -56.824], [-10.107, -55.18], [-11.63, -53.505], [-13.007, -51.803], [-14.253, -50.077], [-15.383, -48.331], [-16.41, -46.566], [-17.343, -44.786], [-18.194, -42.992], [-18.969, -41.186], [-19.677, -39.368], [-20.323, -37.541], [-20.913, -35.705], [-21.452, -33.862], [-21.944, -32.011], [-22.392, -30.155], [-22.8, -28.293], [-23.172, -26.426], [-23.508, -24.554], [-23.812, -22.679], [-24.085, -20.8], [-24.33, -18.918], [-24.547, -17.034], [-24.739, -15.147], [-24.905, -13.258], [-25.047, -11.367], [-25.166, -9.475], [-25.263, -7.581], [-25.337, -5.687], [-25.39, -3.791], [-25.422, -1.896], [-25.433, -0.0], [-25.422, 1.896], [-25.39, 3.791], [-25.337, 5.687], [-25.263, 7.581], [-25.166, 9.475], [-25.047, 11.367], [-24.905, 13.258], [-24.739, 15.147], [-24.547, 17.034], [-24.33, 18.918], [-24.085, 20.8], [-23.812, 22.679], [-23.508, 24.554], [-23.172, 26.426], [-22.8, 28.293], [-22.392, 30.155], [-21.944, 32.011], [-21.452, 33.862], [-20.913, 35.705], [-20.323, 37.541], [-19.677, 39.368], [-18.969, 41.186], [-18.194, 42.992], [-17.343, 44.786], [-16.41, 46.566], [-15.383, 48.331], [-14.253, 50.077], [-13.007, 51.803], [-11.63, 53.505], [-10.107, 55.18], [-8.417, 56.824], [-6.539, 58.431], [-4.449, 59.997], [-2.118, 61.513], [0.483, 62.972], [3.387, 64.363], [6.628, 65.676], [10.238, 66.896], [14.244, 68.008], [18.663, 68.995], [23.494, 69.839], [28.715, 70.52], [34.268, 71.022], [40.068, 71.329], [46.0, 71.433]]]}}, {"type": "Feature", "properties": {"satellite": "Optus D2", "lon": 152.0, "band": "Ku", "min_elevation": 10.0}, "geometry": {"type": "Polygon", "coordinates": [[[152.0, 71.433], [157.932, 71.329], [163.732, 71.022], [169.285, 70.52], [174.506, 69.839], [179.337, 68.995], [183.756, 68.008], [187.762, 66.896], [191.372, 65.676], [194.613, 64.363], [197.517, 62.972], [200.118, 61.513], [202.449, 59.997], [204.539, 58.431], [206.417, 56.824], [208.107, 55.18], [209.63, 53.505], [211.007, 51.803], [212.253, 50.077], [213.383, 48.331], [214.41, 46.566], [215.343, 44.786], [216.194, 42.992], [216.969, 41.186], [217.677, 39.368], [218.323, 37.541], [218.913, 35.705], [219.452, 33.862], [219.944, 32.011], [220.392, 30.155], [220.8, 28.293], [221.172, 26.426], [221.508, 24.554], [221.812, 22.679], [222.085, 20.8], [222.33, 18.918], [222.547, 17.034], [222.739, 15.147], [222.905, 13.258], [223.047, 11.367], [223.166, 9.475], [223.263, 7.581], [223.337, 5.687], [223.39, 3.791], [223.422, 1.896], [223.433, 0.0], [223.422, -1.896], [223.39, -3.791], [223.337, -5.687], [223.263, -7.581], [223.166, -9.475], [223.047, -11.367], [222.905, -13.258], [222.739, -15.147], [222.547, -17.034], [222.33, -18.918], [222.085, -20.8], [221.812, -22.679], [221.508, -24.554], [221.172, -26.426], [220.8, -28.293], [220.392, -30.155], [219.944, -32.011], [219.452, -33.862], [218.913, -35.705], [218.323, -37.541], [217.677, -39.368], [216.969, -41.186], [216.194, -42.992], [215.343, -44.786], [214.41, -46.566], [213.383, -48.331], [212.253, -50.077], [211.007, -51.803], [209.63, -53.505], [208.107, -55.18], [206.417, -56.824], [204.539, -58.431], [202.449, -59.997], [200.118, -61.513], [197.517, -62.972], [194.613, -64.363], [191.372, -65.676], [187.762, -66.896], [183.756, -68.008], [179.337, -68.995], [174.506, -69.839], [169.285, -70.52], [163.732, -71.022], [157.932, -71.329], [152.0, -71.433], [146.068, -71.329], [140.268, -71.022], [134.715, -70.52], [129.494, -69.839], [124.663, -68.995], [120.244, -68.008], [116.238, -66.896], [112.628, -65.676], [109.387, -64.363], [106.483, -62.972], [103.882, -61.513], [101.551, -59.997], [99.461, -58.431], [97.583, -56.824], [95.893, -55.18], [94.37, -53.505], [92.993, -51.803], [91.747, -50.077], [90.617, -48.331], [89.59, -46.566], [88.657, -44.786], [87.806, -42.992], [87.031, -41.186], [86.323, -39.368], [85.677, -37.541], [85.087, -35.705], [84.548, -33.862], [84.056, -32.011], [83.608, -30.155], [83.2, -28.293], [82.828, -26.426], [82.492, -24.554], [82.188, -22.679], [81.915, -20.8], [81.67, -18.918], [81.453, -17.034], [81.261, -15.147], [81.095, -13.258], [80.953, -11.367], [80.834, -9.475], [80.737, -7.581], [80.663, -5.687], [80.61, -3.791], [80.578, -1.896], [80.567, -0.0], [80.578, 1.896], [80.61, 3.791], [80.663, 5.687], [80.737, 7.581], [80.834, 9.475], [80.953, 11.367], [81.095, 13.258], [81.261, 15.147], [81.453, 17.034], [81.67, 18.918], [81.915, 20.8], [82.188, 22.679], [82.492, 24.554], [82.828, 26.426], [83.2, 28.293], [83.608, 30.155], [84.056, 32.011], [84.548, 33.862], [85.087, 35.705], [85.677, 37.541], [86.323, 39.368], [87.031, 41.186], [87.806, 42.992], [88.657, 44.786], [89.59, 46.566], [90.617, 48.331], [91.747, 50.077], [92.993, 51.803], [94.37, 53.505], [95.893, 55.18], [97.583, 56.824], [99.461, 58.431], [101.551, 59.997], [103.882, 61.513], [106.483, 62.972], [109.387, 64.363], [112.628, 65.676], [116.238, 66.896], [120.244, 68.008], [124.663, 68.995], [129.494, 69.839], [134.715, 70.52], [140.268, 71.022], [146.068, 71.329], [152.0, 71.433]]]}}, {"type": "Feature", "properties": {"satellite": "Hellas Sat 2", "lon": 39.0, "band": "Ku", "min_elevation": 10.0}, "geometry": {"type": "Polygon", "coordinates": [[[39.0, 71.433], [44.932, 71.329], [50.732, 71.022], [56.285, 70.52], [61.506, 69.839], [66.337, 68.995], [70.756, 68.008], [74.762, 66.896], [78.372, 65.676], [81.613, 64.363], [84.517, 62.972], [87.118, 61.513], [89.449, 59.997], [91.539, 58.431], [93.417, 56.824], [95.107, 55.18], [96.63, 53.505], [98.007, 51.803], [99.253, 50.077], [100.383, 48.331], [101.41, 46.566], [102.343, 44.786], [103.194, 42.992], [103.969, 41.186], [104.677, 39.368], [105.323, 37.541], [105.913, 35.705], [106.452, 33.862], [106.944, 32.011], [107.392, 30.155], [107.8, 28.293], [108.172, 26.426], [108.508, 24.554], [108.812, 22.679], [109.085, 20.8], [109.33, 18.918], [109.547, 17.034], [109.739, 15.147], [109.905, 13.258], [110.047, 11.367], [110.166, 9.475], [110.263, 7.581], [110.337, 5.687], [110.39, 3.791], [110.422, 1.896], [110.433, 0.0], [110.422, -1.896], [110.39, -3.791], [110.337, -5.687], [110.263, -7.581], [110.166, -9.475], [110.047, -11.367], [109.905, -13.258], [109.739, -15.147], [109.547, -17.034], [109.33, -18.918], [109.085, -20.8], [108.812, -22.679], [108.508, -24.554], [108.172, -26.426], [107.8, -28.293], [107.392, -30.155], [106.944, -32.011], [106.452, -33.862], [105.913, -35.705], [105.323, -37.541], [104.677, -39.368], [103.969, -41.186], [103.194, -42.992], [102.343, -44.786], [101.41, -46.566], [100.383, -48.331], [99.253, -50.077], [98.007, -51.803], [96.63, -53.505], [95.107, -55.18], [93.417, -56.824], [91.539, -58.431], [89.449, -59.997], [87.118, -61.513], [84.517, -62.972], [81.613, -64.363], [78.372, -65.676], [74.762, -66.896], [70.756, -68.008], [66.337, -68.995], [61.506, -69.839], [56.285, -70.52], [50.732, -71.022], [44.932, -71.329], [39.0, -71.433], [33.068, -71.329], [27.268, -71.022], [21.715, -70.52], [16.494, -69.839], [11.663, -68.995], [7.244, -68.008], [3.238, -66.896], [-0.372, -65.676], [-3.613, -64.363], [-6.517, -62.972], [-9.118, -61.513], [-11.449, -59.997], [-13.539, -58.431], [-15.417, -56.824], [-17.107, -55.18], [-18.63, -53.505], [-20.007, -51.803], [-21.253, -50.077], [-22.383, -48.331], [-23.41, -46.566], [-24.343, -44.786], [-25.194, -42.992], [-25.969, -41.186], [-26.677, -39.368], [-27.323, -37.541], [-27.913, -35.705], [-28.452, -33.862], [-28.944, -32.011], [-29.392, -30.155], [-29.8, -28.293], [-30.172, -26.426], [-30.508, -24.554], [-30.812, -22.679], [-31.085, -20.8], [-31.33, -18.918], [-31.547, -17.034], [-31.739, -15.147], [-31.905, -13.258], [-32.047, -11.367], [-32.166, -9.475], [-32.263, -7.581], [-32.337, -5.687], [-32.39, -3.791], [-32.422, -1.896], [-32.433, -0.0], [-32.422, 1.896], [-32.39, 3.791], [-32.337, 5.687], [-32.263, 7.581], [-32.166, 9.475], [-32.047, 11.367], [-31.905, 13.258], [-31.739, 15.147], [-31.547, 17.034], [-31.33, 18.918], [-31.085, 20.8], [-30.812, 22.679], [-30.508, 24.554], [-30.172, 26.426], [-29.8, 28.293], [-29.392, 30.155], [-28.944, 32.011], [-28.452, 33.862], [-27.913, 35.705], [-27.323, 37.541], [-26.677, 39.368], [-25.969, 41.186], [-25.194, 42.992], [-24.343, 44.786], [-23.41, 46.566], [-22.383, 48.331], [-21.253, 50.077], [-20.007, 51.803], [-18.63, 53.505], [-17.107, 55.18], [-15.417, 56.824], [-13.539, 58.431], [-11.449, 59.997], [-9.118, 61.513], [-6.517, 62.972], [-3.613, 64.363], [-0.372, 65.676], [3.238, 66.896], [7.244, 68.008], [11.663, 68.995], [16.494, 69.839], [21.715, 70.52], [27.268, 71.022], [33.068, 71.329], [39.0, 71.433]]]}}, {"type": "Feature", "properties": {"satellite": "Thor 6", "lon": -0.8, "band": "Ku", "min_elevation": 10.0}, "geometry": {"type": "Polygon", "coordinates": [[[-0.8, 71.433], [5.132, 71.329], [10.932, 71.022], [16.485, 70.52], [21.706, 69.839], [26.537, 68.995], [30.956, 68.008], [34.962, 66.896], [38.572, 65.676], [41.813, 64.363], [44.717, 62.972], [47.318, 61.513], [49.649, 59.997], [51.739, 58.431], [53.617, 56.824], [55.307, 55.18], [56.83, 53.505], [58.207, 51.803], [59.453, 50.077], [60.583, 48.331], [61.61, 46.566], [62.543, 44.786], [63.394, 42.992], [64.169, 41.186], [64.877, 39.368], [65.523, 37.541], [66.113, 35.705], [66.652, 33.862], [67.144, 32.011], [67.592, 30.155], [68.0, 28.293], [68.372, 26.426], [68.708, 24.554], [69.012, 22.679], [69.285, 20.8], [69.53, 18.918], [69.747, 17.034], [69.939, 15.147], [70.105, 13.258], [70.247, 11.367], [70.366, 9.475], [70.463, 7.581], [70.537, 5.687], [70.59, 3.791], [70.622, 1.896], [70.633, 0.0], [70.622, -1.896], [70.59, -3.791], [70.537, -5.687], [70.463, -7.581], [70.366, -9.475], [70.247, -11.367], [70.105, -13.258], [69.939, -15.147], [69.747, -17.034], [69.53, -18.918], [69.285, -20.8], [69.012, -22.679], [68.708, -24.554], [68.372, -26.426], [68.0, -28.293], [67.592, -30.155], [67.144, -32.011], [66.652, -33.862], [66.113, -35.705], [65.523, -37.541], [64.877, -39.368], [64.169, -41.186], [63.394, -42.992], [62.543, -44.786], [61.61, -46.566], [60.583, -48.331], [59.453, -50.077], [58.207, -51.803], [56.83, -53.505], [55.307, -55.18], [53.617, -56.824], [51.739, -58.431], [49.649, -59.997], [47.318, -61.513], [44.717, -62.972], [41.813, -64.363], [38.572, -65.676], [34.962, -66.896], [30.956, -68.008], [26.537, -68.995], [21.706, -69.839], [16.485, -70.52], [10.932, -71.022], [5.132, -71.329], [-0.8, -71.433], [-6.732, -71.329], [-12.532, -71.022], [-18.085, -70.52], [-23.306, -69.839], [-28.137, -68.995], [-32.556, -68.008], [-36.562, -66.896], [-40.172, -65.676], [-43.413, -64.363], [-46.317, -62.972], [-48.918, -61.513], [-51.249, -59.997], [-53.339, -58.431], [-55.217, -56.824], [-56.907, -55.18], [-58.43, -53.505], [-59.807, -51.803], [-61.053, -50.077], [-62.183, -48.331], [-63.21, -46.566], [-64.143, -44.786], [-64.994, -42.992], [-65.769, -41.186], [-66.477, -39.368], [-67.123, -37.541], [-67.713, -35.705], [-68.252, -33.862], [-68.744, -32.011], [-69.192, -30.155], [-69.6, -28.293], [-69.972, -26.426], [-70.308, -24.554], [-70.612, -22.679], [-70.885, -20.8], [-71.13, -18.918], [-71.347, -17.034], [-71.539, -15.147], [-71.705, -13.258], [-71.847, -11.367], [-71.966, -9.475], [-72.063, -7.581], [-72.137, -5.687], [-72.19, -3.791], [-72.222, -1.896], [-72.233, -0.0], [-72.222, 1.896], [-72.19, 3.791], [-72.137, 5.687], [-72.063, 7.581], [-71.966, 9.475], [-71.847, 11.367], [-71.705, 13.258], [-71.539, 15.147], [-71.347, 17.034], [-71.13, 18.918], [-70.885, 20.8], [-70.612, 22.679], [-70.308, 24.554], [-69.972, 26.426], [-69.6, 28.293], [-69.192, 30.155], [-68.744, 32.011], [-68.252, 33.862], [-67.713, 35.705], [-67.123, 37.541], [-66.477, 39.368], [-65.769, 41.186], [-64.994, 42.992], [-64.143, 44.786], [-63.21, 46.566], [-62.183, 48.331], [-61.053, 50.077], [-59.807, 51.803], [-58.43, 53.505], [-56.907, 55.18], [-55.217, 56.824], [-53.339, 58.431], [-51.249, 59.997], [-48.918, 61.513], [-46.317, 62.972], [-43.413, 64.363], [-40.172, 65.676], [-36.562, 66.896], [-32.556, 68.008], [-28.137, 68.995], [-23.306, 69.839], [-18.085, 70.52], [-12.532, 71.022], [-6.732, 71.329], [-0.8, 71.433]]]}}, {"type": "Feature", "properties": {"satellite": "Eutelsat 3D", "lon": 3.1, "band": "Ku", "min_elevation": 10.0}, "geometry": {"type": "Polygon", "coordinates": [[[3.1, 71.433], [9.032, 71.329], [14.832, 71.022], [20.385, 70.52], [25.606, 69.839], [30.437, 68.995], [34.856, 68.008], [38.862, 66.896], [42.472, 65.676], [45.713, 64.363], [48.617, 62.972], [51.218, 61.513], [53.549, 59.997], [55.639, 58.431], [57.517, 56.824], [59.207, 55.18], [60.73, 53.505], [62.107, 51.803], [63.353, 50.077], [64.483, 48.331], [65.51, 46.566], [66.443, 44.786], [67.294, 42.992], [68.069, 41.186], [68.777, 39.368], [69.423, 37.541], [70.013, 35.705], [70.552, 33.862], [71.044, 32.011], [71.492, 30.155], [71.9, 28.293], [72.272, 26.426], [72.608, 24.554], [72.912, 22.679], [73.185, 20.8], [73.43, 18.918], [73.647, 17.034], [73.839, 15.147], [74.005, 13.258], [74.147, 11.367], [74.266, 9.475], [74.363, 7.581], [74.437, 5.687], [74.49, 3.791], [74.522, 1.896], [74.533, 0.0], [74.522, -1.896], [74.49, -3.791], [74.437, -5.687], [74.363, -7.581], [74.266, -9.475], [74.147, -11.367], [74.005, -13.258], [73.839, -15.147], [73.647, -17.034], [73.43, -18.918], [73.185, -20.8], [72.912, -22.679], [72.608, -24.554], [72.272, -26.426], [71.9, -28.293], [71.492, -30.155], [71.044, -32.011], [70.552, -33.862], [70.013, -35.705], [69.423, -37.541], [68.777, -39.368], [68.069, -41.186], [67.294, -42.992], [66.443, -44.786], [65.51, -46.566], [64.483, -48.331], [63.353, -50.077], [62.107, -51.803], [60.73, -53.505], [59.207, -55.18], [57.517, -56.824], [55.639, -58.431], [53.549, -59.997], [51.218, -61.513], [48.617, -62.972], [45.713, -64.363], [42.472, -65.676], [38.862, -66.896], [34.856, -68.008], [30.437, -68.995], [25.606, -69.839], [20.385, -70.52], [14.832, -71.022], [9.032, -71.329], [3.1, -71.433], [-2.832, -71.329], [-8.632, -71.022], [-14.185, -70.52], [-19.406, -69.839], [-24.237, -68.995], [-28.656, -68.008], [-32.662, -66.896], [-36.272, -65.676], [-39.513, -64.363], [-42.417, -62.972], [-45.018, -61.513], [-47.349, -59.997], [-49.439, -58.431], [-51.317, -56.824], [-53.007, -55.18], [-54.53, -53.505], [-55.907, -51.803], [-57.153, -50.077], [-58.283, -48.331], [-59.31, -46.566], [-60.243, -44.786], [-61.094, -42.992], [-61.869, -41.186], [-62.577, -39.368], [-63.223, -37.541], [-63.813, -35.705], [-64.352, -33.862], [-64.844, -32.011], [-65.292, -30.155], [-65.7, -28.293], [-66.072, -26.426], [-66.408, -24.554], [-66.712, -22.679], [-66.985, -20.8], [-67.23, -18.918], [-67.447, -17.034], [-67.639, -15.147], [-67.805, -13.258], [-67.947, -11.367], [-68.066, -9.475], [-68.163, -7.581], [-68.237, -5.687], [-68.29, -3.791], [-68.322, -1.896], [-68.333, -0.0], [-68.322, 1.896], [-68.29, 3.791], [-68.237, 5.687], [-68.163, 7.581], [-68.066, 9.475], [-67.947, 11.367], [-67.805, 13.258], [-67.639, 15.147], [-67.447, 17.034], [-67.23, 18.918], [-66.985, 20.8], [-66.712, 22.679], [-66.408, 24.554], [-66.072, 26.426], [-65.7, 28.293], [-65.292, 30.155], [-64.844, 32.011], [-64.352, 33.862], [-63.813, 35.705], [-63.223, 37.541], [-62.577, 39.368], [-61.869, 41.186], [-61.094, 42.992], [-60.243, 44.786], [-59.31, 46.566], [-58.283, 48.331], [-57.153, 50.077], [-55.907, 51.803], [-54.53, 53.505], [-53.007, 55.18], [-51.317, 56.824], [-49.439, 58.431], [-47.349, 59.997], [-45.018, 61.513], [-42.417, 62.972], [-39.513, 64.363], [-36.272, 65.676], [-32.662, 66.896], [-28.656, 68.008], [-24.237, 68.995], [-19.406, 69.839], [-14.185, 70.52], [-8.632, 71.022], [-2.832, 71.329], [3.1, 71.433]]]}}, {"type": "Feature", "properties": {"satellite": "Telstar 12", "lon": -15.0, "band": "Ku", "min_elevation": 10.0}, "geometry": {"type": "Polygon", "coordinates": [[[-15.0, 71.433], [-9.068, 71.329], [-3.268, 71.022], [2.285, 70.52], [7.506, 69.839], [12.337, 68.995], [16.756, 68.008], [20.762, 66.896], [24.372, 65.676], [27.613, 64.363], [30.517, 62.972], [33.118, 61.513], [35.449, 59.997], [37.539, 58.431], [39.417, 56.824], [41.107, 55.18], [42.63, 53.505], [44.007, 51.803], [45.253, 50.077], [46.383, 48.331], [47.41, 46.566], [48.343, 44.786], [49.194, 42.992], [49.969, 41.186], [50.677, 39.368], [51.323, 37.541], [51.913, 35.705], [52.452, 33.862], [52.944, 32.011], [53.392, 30.155], [53.8, 28.293], [54.172, 26.426], [54.508, 24.554], [54.812, 22.679], [55.085, 20.8], [55.33, 18.918], [55.547, 17.034], [55.739, 15.147], [55.905, 13.258], [56.047, 11.367], [56.166, 9.475], [56.263, 7.581], [56.337, 5.687], [56.39, 3.791], [56.422, 1.896], [56.433, 0.0], [56.422, -1.896], [56.39, -3.791], [56.337, -5.687], [56.263, -7.581], [56.166, -9.475], [56.047, -11.367], [55.905, -13.258], [55.739, -15.147], [55.547, -17.034], [55.33, -18.918], [55.085, -20.8], [54.812, -22.679], [54.508, -24.554], [54.172, -26.426], [53.8, -28.293], [53.392, -30.155], [52.944, -32.011], [52.452, -33.862], [51.913, -35.705], [51.323, -37.541], [50.677, -39.368], [49.969, -41.186], [49.194, -42.992], [48.343, -44.786], [47.41, -46.566], [46.383, -48.331], [45.253, -50.077], [44.007, -51.803], [42.63, -53.505], [41.107, -55.18], [39.417, -56.824], [37.539, -58.431], [35.449, -59.997], [33.118, -61.513], [30.517, -62.972], [27.613, -64.363], [24.372, -65.676], [20.762, -66.896], [16.756, -68.008], [12.337, -68.995], [7.506, -69.839], [2.285, -70.52], [-3.268, -71.022], [-9.068, -71.329], [-15.0, -71.433], [-20.932, -71.329], [-26.732, -71.022], [-32.285, -70.52], [-37.506, -69.839], [-42.337, -68.995], [-46.756, -68.008], [-50.762, -66.896], [-54.372, -65.676], [-57.613, -64.363], [-60.517, -62.972], [-63.118, -61.513], [-65.449, -59.997], [-67.539, -58.431], [-69.417, -56.824], [-71.107, -55.18], [-72.63, -53.505], [-74.007, -51.803], [-75.253, -50.077], [-76.383, -48.331], [-77.41, -46.566], [-78.343, -44.786], [-79.194, -42.992], [-79.969, -41.186], [-80.677, -39.368], [-81.323, -37.541], [-81.913, -35.705], [-82.452, -33.862], [-82.944, -32.011], [-83.392, -30.155], [-83.8, -28.293], [-84.172, -26.426], [-84.508, -24.554], [-84.812, -22.679], [-85.085, -20.8], [-85.33, -18.918], [-85.547, -17.034], [-85.739, -15.147], [-85.905, -13.258], [-86.047, -11.367], [-86.166, -9.475], [-86.263, -7.581], [-86.337, -5.687], [-86.39, -3.791], [-86.422, -1.896], [-86.433, -0.0], [-86.422, 1.896], [-86.39, 3.791], [-86.337, 5.687], [-86.263, 7.581], [-86.166, 9.475], [-86.047, 11.367], [-85.905, 13.258], [-85.739, 15.147], [-85.547, 17.034], [-85.33, 18.918], [-85.085, 20.8], [-84.812, 22.679], [-84.508, 24.554], [-84.172, 26.426], [-83.8, 28.293], [-83.392, 30.155], [-82.944, 32.011], [-82.452, 33.862], [-81.913, 35.705], [-81.323, 37.541], [-80.677, 39.368], [-79.969, 41.186], [-79.194, 42.992], [-78.343, 44.786], [-77.41, 46.566], [-76.383, 48.331], [-75.253, 50.077], [-74.007, 51.803], [-72.63, 53.505], [-71.107, 55.18], [-69.417, 56.824], [-67.539, 58.431], [-65.449, 59.997], [-63.118, 61.513], [-60.517, 62.972], [-57.613, 64.363], [-54.372, 65.676], [-50.762, 66.896], [-46.756, 68.008], [-42.337, 68.995], [-37.506, 69.839], [-32.285, 70.52], [-26.732, 71.022], [-20.932, 71.329], [-15.0, 71.433]]]}}]}